COSMOS 2425 (716)       
1 29670U 06062A   21250.49980965  .00000067  00000-0  00000-0 0  9991
2 29670  64.8249 252.6761 0024139 340.3346 117.9591  2.13114674114424
COSMOS 2433 (720)       
1 32275U 07052A   21250.57938332 -.00000052  00000-0  00000-0 0  9991
2 32275  66.0724  14.0597 0002809 196.4496 132.6393  2.13104328107931
COSMOS 2432 (719)       
1 32276U 07052B   21250.74889690 -.00000051  00000-0  00000-0 0  9992
2 32276  66.0864  14.1504 0007625 332.4080  75.8005  2.13103521107941
COSMOS 2434 (721)       
1 32393U 07065A   21250.68206030  .00000066  00000-0  00000-0 0  9995
2 32393  64.4424 251.0913 0001028 174.1304 122.3546  2.13103096106643
COSMOS 2436 (723)       
1 32395U 07065C   21250.54032477  .00000066  00000-0  00000-0 0  9994
2 32395  64.4516 251.1509 0014192 349.0942 334.7208  2.13102974106576
COSMOS 2456 (730)       
1 36111U 09070A   21250.95483006  .00000047  00000-0  00000-0 0  9994
2 36111  64.2892 130.7523 0003491 323.0466 352.1732  2.13099445 91311
COSMOS 2457 (733)       
1 36112U 09070B   21250.77699293  .00000047  00000-0  00000-0 0  9992
2 36112  64.2715 130.6402 0005229 159.5533 144.2728  2.13101572 91319
COSMOS 2459 (731)       
1 36400U 10007A   21250.43846755 -.00000053  00000-0  00000-0 0  9992
2 36400  65.9683  12.9773 0024775 351.1298  88.6503  2.13108596 89658
COSMOS 2461 (735)       
1 36401U 10007B   21250.39535280 -.00000053  00000-0  00000-0 0  9996
2 36401  65.9635  12.9437 0018680  12.9411  32.7823  2.13103705 89663
COSMOS 2460 (732)       
1 36402U 10007C   21250.44350292 -.00000053  00000-0  00000-0 0  9991
2 36402  65.9508  12.8978 0002376 134.4458 253.8460  2.13106584 89669
COSMOS 2464 (736)       
1 37139U 10041C   21250.69914600  .00000065  00000-0  00000-0 0  9995
2 37139  64.0420 250.3066 0026697   5.1162 164.7838  2.13100780 85729
COSMOS 2471 (701K)      
1 37372U 11009A   21250.54208095 -.00000053  00000-0  00000-0 0  9995
2 37372  65.9456  12.8232 0015713 224.4450  15.4238  2.13062366 81938
COSMOS 2476 (744)       
1 37867U 11064A   21250.62107051  .00000047  00000-0  00000-0 0  9996
2 37867  64.5814 132.0093 0020261 236.2053  86.0065  2.13101934 76654
COSMOS 2477 (745)       
1 37868U 11064B   21250.64083623  .00000047  00000-0  00000-0 0  9997
2 37868  64.5903 132.0704 0017680 237.0007 278.6647  2.13101882 76615
COSMOS 2475 (743)       
1 37869U 11064C   21250.21972097  .00000046  00000-0  00000-0 0  9992
2 37869  64.5983 132.0902 0021722 257.1555 253.2294  2.13102217 76617
COSMOS 2485 (747)       
1 39155U 13019A   21250.34278986  .00000046  00000-0  00000-0 0  9994
2 39155  64.7479 132.3863 0020619 231.2655 281.9324  2.13102215 65120
COSMOS 2492 (754)       
1 39620U 14012A   21250.56509252 -.00000053  00000-0  00000-0 0  9991
2 39620  65.8393  12.6144 0010783 325.0781  33.3783  2.13103314 58074
COSMOS 2500 (755)       
1 40001U 14032A   21250.61138192 -.00000053  00000-0  00000-0 0  9995
2 40001  65.7789  12.4946 0007514 186.9900  66.4129  2.13102504 56293
COSMOS 2501 (702K)      
1 40315U 14075A   21250.78771399  .00000064  00000-0  00000-0 0  9991
2 40315  63.7526 251.0807 0018929 213.3502 342.0297  2.13101428 52705
COSMOS 2514 (751)       
1 41330U 16008A   21250.61992627 -.00000053  00000-0  00000-0 0  9997
2 41330  65.5800  12.2560 0010744 201.5111 241.7316  2.13102903 43462
COSMOS 2516 (753)       
1 41554U 16032A   21250.54425690  .00000065  00000-0  00000-0 0  9997
2 41554  63.9784 251.2853 0015906 221.8252  60.4140  2.13107188 41064
COSMOS 2522 (752)       
1 42939U 17055A   21250.74754146  .00000065  00000-0  00000-0 0  9994
2 42939  64.2114 251.5902 0010217 246.1482  53.5100  2.13102017 30823
COSMOS 2527 (756)       
1 43508U 18053A   21250.57038549  .00000047  00000-0  00000-0 0  9999
2 43508  64.9104 132.3195 0007167 225.3031 330.5684  2.13102717 25119
COSMOS 2529 (757)       
1 43687U 18086A   21250.90704304  .00000065  00000-0  00000-0 0  9999
2 43687  64.4260 251.8248 0012271 265.1843 112.4094  2.13102209 22144
COSMOS 2534 (758)       
1 44299U 19030A   21250.55485324  .00000066  00000-0  00000-0 0  9999
2 44299  64.4974 251.6954 0014693 282.2917 319.8999  2.13101983 17778
COSMOS 2544 (759)       
1 44850U 19088A   21250.48280456  .00000047  00000-0  00000-0 0  9995
2 44850  64.8958 132.1794 0011370 260.9577 271.4108  2.13102353 13544
COSMOS 2545 (760)       
1 45358U 20018A   21250.74692571 -.00000054  00000-0  00000-0 0  9997
2 45358  64.9142  13.0921 0008170 234.2773 350.6266  2.13102822 11509
